CCSDS_OMM_VERS = 2.0
CREATION_DATE  = 
ORIGINATOR     = 

OBJECT_NAME    = SL-3 R/B
OBJECT_ID      = 1982-079B
CENTER_NAME    = EARTH
REF_FRAME      = TEME
TIME_SYSTEM    = UTC
MEAN_ELEMENT_THEORY = SGP/SGP4

EPOCH          = 2026-03-14T20:25:23.007936
MEAN_MOTION    = 15.24884589
ECCENTRICITY   = .00252539
INCLINATION    = 81.1483
RA_OF_ASC_NODE = 186.9834
ARG_OF_PERICENTER = 147.5961
MEAN_ANOMALY   = 212.6830

EPHEMERIS_TYPE = 0
CLASSIFICATION_TYPE = U
NORAD_CAT_ID   = 13403
ELEMENT_SET_NO = 999
REV_AT_EPOCH   = 37848
BSTAR          = .34770308E-3
MEAN_MOTION_DOT = .8751E-4
MEAN_MOTION_DDOT = 0

CCSDS_OMM_VERS = 2.0
CREATION_DATE  = 
ORIGINATOR     = 

OBJECT_NAME    = SL-14 R/B
OBJECT_ID      = 1982-092B
CENTER_NAME    = EARTH
REF_FRAME      = TEME
TIME_SYSTEM    = UTC
MEAN_ELEMENT_THEORY = SGP/SGP4

EPOCH          = 2026-03-14T21:56:44.001888
MEAN_MOTION    = 14.86671913
ECCENTRICITY   = .00188153
INCLINATION    = 82.5684
RA_OF_ASC_NODE = 136.5128
ARG_OF_PERICENTER = 284.9789
MEAN_ANOMALY   = 248.3761

EPHEMERIS_TYPE = 0
CLASSIFICATION_TYPE = U
NORAD_CAT_ID   = 13553
ELEMENT_SET_NO = 999
REV_AT_EPOCH   = 32970
BSTAR          = .52613379E-4
MEAN_MOTION_DOT = .493E-5
MEAN_MOTION_DDOT = 0

CCSDS_OMM_VERS = 2.0
CREATION_DATE  = 
ORIGINATOR     = 

OBJECT_NAME    = SL-3 R/B
OBJECT_ID      = 1983-010B
CENTER_NAME    = EARTH
REF_FRAME      = TEME
TIME_SYSTEM    = UTC
MEAN_ELEMENT_THEORY = SGP/SGP4

EPOCH          = 2026-03-14T17:50:14.690112
MEAN_MOTION    = 15.46555324
ECCENTRICITY   = .00176234
INCLINATION    = 81.1059
RA_OF_ASC_NODE = 356.0518
ARG_OF_PERICENTER = 34.4116
MEAN_ANOMALY   = 325.8266

EPHEMERIS_TYPE = 0
CLASSIFICATION_TYPE = U
NORAD_CAT_ID   = 13819
ELEMENT_SET_NO = 999
REV_AT_EPOCH   = 35872
BSTAR          = .44296032E-3
MEAN_MOTION_DOT = .22212E-3
MEAN_MOTION_DDOT = 0

CCSDS_OMM_VERS = 2.0
CREATION_DATE  = 
ORIGINATOR     = 

OBJECT_NAME    = SL-3 R/B
OBJECT_ID      = 1983-075B
CENTER_NAME    = EARTH
REF_FRAME      = TEME
TIME_SYSTEM    = UTC
MEAN_ELEMENT_THEORY = SGP/SGP4

EPOCH          = 2026-03-14T21:22:09.679584
MEAN_MOTION    = 15.38555041
ECCENTRICITY   = .00206224
INCLINATION    = 97.6140
RA_OF_ASC_NODE = 78.6650
ARG_OF_PERICENTER = 206.1429
MEAN_ANOMALY   = 153.8776

EPHEMERIS_TYPE = 0
CLASSIFICATION_TYPE = U
NORAD_CAT_ID   = 14208
ELEMENT_SET_NO = 999
REV_AT_EPOCH   = 33095
BSTAR          = .36776271E-3
MEAN_MOTION_DOT = .14018E-3
MEAN_MOTION_DDOT = 0

CCSDS_OMM_VERS = 2.0
CREATION_DATE  = 
ORIGINATOR     = 

OBJECT_NAME    = COSMOS 1536
OBJECT_ID      = 1984-013A
CENTER_NAME    = EARTH
REF_FRAME      = TEME
TIME_SYSTEM    = UTC
MEAN_ELEMENT_THEORY = SGP/SGP4

EPOCH          = 2026-03-14T13:53:55.635360
MEAN_MOTION    = 15.23896288
ECCENTRICITY   = .00124355
INCLINATION    = 82.5424
RA_OF_ASC_NODE = 102.9892
ARG_OF_PERICENTER = 264.0292
MEAN_ANOMALY   = 95.9528

EPHEMERIS_TYPE = 0
CLASSIFICATION_TYPE = U
NORAD_CAT_ID   = 14699
ELEMENT_SET_NO = 999
REV_AT_EPOCH   = 27336
BSTAR          = .34209659E-3
MEAN_MOTION_DOT = .8308E-4
MEAN_MOTION_DDOT = 0

CCSDS_OMM_VERS = 2.0
CREATION_DATE  = 
ORIGINATOR     = 

OBJECT_NAME    = SL-14 R/B
OBJECT_ID      = 1984-027B
CENTER_NAME    = EARTH
REF_FRAME      = TEME
TIME_SYSTEM    = UTC
MEAN_ELEMENT_THEORY = SGP/SGP4

EPOCH          = 2026-03-14T21:04:28.972704
MEAN_MOTION    = 14.85982707
ECCENTRICITY   = .00169727
INCLINATION    = 82.5394
RA_OF_ASC_NODE = 240.1454
ARG_OF_PERICENTER = 320.0097
MEAN_ANOMALY   = 39.9868

EPHEMERIS_TYPE = 0
CLASSIFICATION_TYPE = U
NORAD_CAT_ID   = 14820
ELEMENT_SET_NO = 999
REV_AT_EPOCH   = 24840
BSTAR          = .66558472E-4
MEAN_MOTION_DOT = .607E-5
MEAN_MOTION_DDOT = 0

CCSDS_OMM_VERS = 2.0
CREATION_DATE  = 
ORIGINATOR     = 

OBJECT_NAME    = SL-8 R/B
OBJECT_ID      = 1985-006B
CENTER_NAME    = EARTH
REF_FRAME      = TEME
TIME_SYSTEM    = UTC
MEAN_ELEMENT_THEORY = SGP/SGP4

EPOCH          = 2026-03-14T22:57:41.066784
MEAN_MOTION    = 14.37787427
ECCENTRICITY   = .00182074
INCLINATION    = 74.0433
RA_OF_ASC_NODE = 251.4554
ARG_OF_PERICENTER = 167.8816
MEAN_ANOMALY   = 308.6977

EPHEMERIS_TYPE = 0
CLASSIFICATION_TYPE = U
NORAD_CAT_ID   = 15483
ELEMENT_SET_NO = 999
REV_AT_EPOCH   = 15478
BSTAR          = .13784486E-3
MEAN_MOTION_DOT = .39E-5
MEAN_MOTION_DDOT = 0

CCSDS_OMM_VERS = 2.0
CREATION_DATE  = 
ORIGINATOR     = 

OBJECT_NAME    = SL-12 R/B(2)
OBJECT_ID      = 1985-042D
CENTER_NAME    = EARTH
REF_FRAME      = TEME
TIME_SYSTEM    = UTC
MEAN_ELEMENT_THEORY = SGP/SGP4

EPOCH          = 2026-03-14T18:44:21.492384
MEAN_MOTION    = 14.21983982
ECCENTRICITY   = .00330593
INCLINATION    = 71.1063
RA_OF_ASC_NODE = 76.9715
ARG_OF_PERICENTER = 119.7498
MEAN_ANOMALY   = 52.6113

EPHEMERIS_TYPE = 0
CLASSIFICATION_TYPE = U
NORAD_CAT_ID   = 15772
ELEMENT_SET_NO = 999
REV_AT_EPOCH   = 11511
BSTAR          = .9460259E-4
MEAN_MOTION_DOT = .163E-5
MEAN_MOTION_DDOT = 0

CCSDS_OMM_VERS = 2.0
CREATION_DATE  = 
ORIGINATOR     = 

OBJECT_NAME    = SL-14 R/B
OBJECT_ID      = 1985-069B
CENTER_NAME    = EARTH
REF_FRAME      = TEME
TIME_SYSTEM    = UTC
MEAN_ELEMENT_THEORY = SGP/SGP4

EPOCH          = 2026-03-14T22:17:14.487360
MEAN_MOTION    = 14.86439988
ECCENTRICITY   = .00189499
INCLINATION    = 82.5293
RA_OF_ASC_NODE = 20.0075
ARG_OF_PERICENTER = 170.2649
MEAN_ANOMALY   = 189.8939

EPHEMERIS_TYPE = 0
CLASSIFICATION_TYPE = U
NORAD_CAT_ID   = 15945
ELEMENT_SET_NO = 999
REV_AT_EPOCH   = 17361
BSTAR          = .66564864E-4
MEAN_MOTION_DOT = .614E-5
MEAN_MOTION_DDOT = 0

CCSDS_OMM_VERS = 2.0
CREATION_DATE  = 
ORIGINATOR     = 

OBJECT_NAME    = SL-16 R/B
OBJECT_ID      = 1985-097B
CENTER_NAME    = EARTH
REF_FRAME      = TEME
TIME_SYSTEM    = UTC
MEAN_ELEMENT_THEORY = SGP/SGP4

EPOCH          = 2026-03-14T21:08:37.037472
MEAN_MOTION    = 14.16598194
ECCENTRICITY   = .0009759
INCLINATION    = 71.0017
RA_OF_ASC_NODE = 129.6257
ARG_OF_PERICENTER = 253.3501
MEAN_ANOMALY   = 280.4196

EPHEMERIS_TYPE = 0
CLASSIFICATION_TYPE = U
NORAD_CAT_ID   = 16182
ELEMENT_SET_NO = 999
REV_AT_EPOCH   = 8796
BSTAR          = .31094287E-4
MEAN_MOTION_DOT = .14E-6
MEAN_MOTION_DDOT = 0

CCSDS_OMM_VERS = 2.0
CREATION_DATE  = 
ORIGINATOR     = 

OBJECT_NAME    = SL-14 R/B
OBJECT_ID      = 1986-006B
CENTER_NAME    = EARTH
REF_FRAME      = TEME
TIME_SYSTEM    = UTC
MEAN_ELEMENT_THEORY = SGP/SGP4

EPOCH          = 2026-03-14T21:42:15.709536
MEAN_MOTION    = 14.86823328
ECCENTRICITY   = .00750926
INCLINATION    = 82.5237
RA_OF_ASC_NODE = 254.8279
ARG_OF_PERICENTER = 255.1712
MEAN_ANOMALY   = 104.1178

EPHEMERIS_TYPE = 0
CLASSIFICATION_TYPE = U
NORAD_CAT_ID   = 16496
ELEMENT_SET_NO = 999
REV_AT_EPOCH   = 14998
BSTAR          = .85469978E-4
MEAN_MOTION_DOT = .827E-5
MEAN_MOTION_DDOT = 0

CCSDS_OMM_VERS = 2.0
CREATION_DATE  = 
ORIGINATOR     = 

OBJECT_NAME    = COSMOS 1743
OBJECT_ID      = 1986-034A
CENTER_NAME    = EARTH
REF_FRAME      = TEME
TIME_SYSTEM    = UTC
MEAN_ELEMENT_THEORY = SGP/SGP4

EPOCH          = 2026-03-14T12:30:16.490880
MEAN_MOTION    = 15.58934649
ECCENTRICITY   = .00016932
INCLINATION    = 82.5290
RA_OF_ASC_NODE = 68.7583
ARG_OF_PERICENTER = 244.7461
MEAN_ANOMALY   = 115.3620

EPHEMERIS_TYPE = 0
CLASSIFICATION_TYPE = U
NORAD_CAT_ID   = 16719
ELEMENT_SET_NO = 999
REV_AT_EPOCH   = 18100
BSTAR          = .62793788E-3
MEAN_MOTION_DOT = .4894E-3
MEAN_MOTION_DDOT = 0

